STARLINK-32354          
1 61932U 24207W   26068.00482753  .00032811  00000+0  11958-2 0  9997
2 61932  43.0041 289.3865 0001982 289.2672  70.7966 15.27599767 75063
FLOCK 4G-10             
1 62670U 25009BP  26068.70827885  .00013952  00000+0  52624-3 0  9995
2 62670  97.3967 150.5883 0003469 341.4844  18.6269 15.27155944121340
